{"type": "FeatureCollection", "features": [ {"type": "Feature", "properties": {"norad_id": 38552, "name": "METEOSAT-10 (MSG-3)", "group": "weather", "lat": 2.3586163695979963, "lon": -152.69710535643867, "alt_km": 35784.750545272545, "timestamp": "2025-12-03T08:58:45.641161+00:00", "meta": {"OBJECT_NAME": "METEOSAT-10 (MSG-3)", "OBJECT_ID": "2012-035B", "EPOCH": "2025-12-03T01:46:14.361312", "MEAN_MOTION": 1.00272334, "ECCENTRICITY": 7.5e-05, "INCLINATION": 4.2044, "RA_OF_ASC_NODE": 61.7366, "ARG_OF_PERICENTER": 219.9554, "MEAN_ANOMALY": 177.1386, "EPHEMERIS_TYPE": 0, "CLASSIFICATION_TYPE": "U", "NORAD_CAT_ID": 38552, "ELEMENT_SET_NO": 999, "REV_AT_EPOCH": 4889, "BSTAR": 0, "MEAN_MOTION_DOT": 1.1e-07, "MEAN_MOTION_DDOT": 0}, "tle": {"line1": "1 38552U 12035B   25337.07377733  .00000011  00000+0  00000+0 0  9991", "line2": "2 38552   4.2044  61.7366 0000750 219.9554 177.1386  1.00272334 48899"}}, "geometry": {"type": "Point", "coordinates": [-152.69710535643867, 2.3586163695979963]}}, {"type": "Feature", "properties": {"norad_id": 38771, "name": "METOP-B", "group": "weather", "lat": 68.68282951698251, "lon": 4.441642184484998, "alt_km": 814.0606605142102, "timestamp": "2025-12-03T08:58:45.641173+00:00", "meta": {"OBJECT_NAME": "METOP-B", "OBJECT_ID": "2012-049A", "EPOCH": "2025-12-03T03:34:50.530080", "MEAN_MOTION": 14.21402492, "ECCENTRICITY": 0.0002479, "INCLINATION": 98.6813, "RA_OF_ASC_NODE": 27.27, "ARG_OF_PERICENTER": 165.9817, "MEAN_ANOMALY": 194.143, "EPHEMERIS_TYPE": 0, "CLASSIFICATION_TYPE": "U", "NORAD_CAT_ID": 38771, "ELEMENT_SET_NO": 999, "REV_AT_EPOCH": 68541, "BSTAR": 0.00011734, "MEAN_MOTION_DOT": 2.13e-06, "MEAN_MOTION_DDOT": 0}, "tle": {"line1": "1 38771U 12049A   25337.14919595  .00000213  00000+0  11734-3 0  9999", "line2": "2 38771  98.6813  27.2700 0002479 165.9817 194.1430 14.21402492685415"}}, "geometry": {"type": "Point", "coordinates": [4.441642184484998, 68.68282951698251]}}, {"type": "Feature", "properties": {"norad_id": 39216, "name": "INSAT-3D", "group": "weather", "lat": -1.337892786783443, "lon": -23.337149881440403, "alt_km": 35786.66686866525, "timestamp": "2025-12-03T08:58:45.641185+00:00", "meta": {"OBJECT_NAME": "INSAT-3D", "OBJECT_ID": "2013-038B", "EPOCH": "2025-12-02T22:57:43.657920", "MEAN_MOTION": 1.00274051, "ECCENTRICITY": 0.000173, "INCLINATION": 1.4174, "RA_OF_ASC_NODE": 85.1028, "ARG_OF_PERICENTER": 153.7343, "MEAN_ANOMALY": 307.1613, "EPHEMERIS_TYPE": 0, "CLASSIFICATION_TYPE": "U", "NORAD_CAT_ID": 39216, "ELEMENT_SET_NO": 999, "REV_AT_EPOCH": 4511, "BSTAR": 0, "MEAN_MOTION_DOT": -3.19e-06, "MEAN_MOTION_DDOT": 0}, "tle": {"line1": "1 39216U 13038B   25336.95675530 -.00000319  00000+0  00000+0 0  9997", "line2": "2 39216   1.4174  85.1028 0001730 153.7343 307.1613  1.00274051 45113"}}, "geometry": {"type": "Point", "coordinates": [-23.337149881440403, -1.337892786783443]}}, {"type": "Feature", "properties": {"norad_id": 39260, "name": "FENGYUN 3C", "group": "weather", "lat": 29.68594563551625, "lon": 140.38722209817897, "alt_km": 835.7274415046304, "timestamp": "2025-12-03T08:58:45.641196+00:00", "meta": {"OBJECT_NAME": "FENGYUN 3C", "OBJECT_ID": "2013-052A", "EPOCH": "2025-12-03T04:52:48.291744", "MEAN_MOTION": 14.1569144, "ECCENTRICITY": 0.0013813, "INCLINATION": 98.4753, "RA_OF_ASC_NODE": 315.3488, "ARG_OF_PERICENTER": 224.7306, "MEAN_ANOMALY": 135.2755, "EPHEMERIS_TYPE": 0, "CLASSIFICATION_TYPE": "U", "NORAD_CAT_ID": 39260, "ELEMENT_SET_NO": 999, "REV_AT_EPOCH": 63083, "BSTAR": 0.00011083, "MEAN_MOTION_DOT": 1.76e-06, "MEAN_MOTION_DDOT": 0}, "tle": {"line1": "1 39260U 13052A   25337.20333671  .00000176  00000+0  11083-3 0  9995", "line2": "2 39260  98.4753 315.3488 0013813 224.7306 135.2755 14.15691440630833"}}, "geometry": {"type": "Point", "coordinates": [140.38722209817897, 29.68594563551625]}}, {"type": "Feature", "properties": {"norad_id": 40069, "name": "METEOR-M 2", "group": "weather", "lat": -59.177539169538065, "lon": -30.185362965079122, "alt_km": 826.023035703849, "timestamp": "2025-12-03T08:58:45.641207+00:00", "meta": {"OBJECT_NAME": "METEOR-M 2", "OBJECT_ID": "2014-037A", "EPOCH": "2025-12-03T04:11:38.444064", "MEAN_MOTION": 14.21380412, "ECCENTRICITY": 0.0004698, "INCLINATION": 98.4892, "RA_OF_ASC_NODE": 315.1265, "ARG_OF_PERICENTER": 241.7728, "MEAN_ANOMALY": 118.2976, "EPHEMERIS_TYPE": 0, "CLASSIFICATION_TYPE": "U", "NORAD_CAT_ID": 40069, "ELEMENT_SET_NO": 999, "REV_AT_EPOCH": 59147, "BSTAR": 0.00011863, "MEAN_MOTION_DOT": 2.17e-06, "MEAN_MOTION_DDOT": 0}, "tle": {"line1": "1 40069U 14037A   25337.17475051  .00000217  00000+0  11863-3 0  9995", "line2": "2 40069  98.4892 315.1265 0004698 241.7728 118.2976 14.21380412591478"}}, "geometry": {"type": "Point", "coordinates": [-30.185362965079122, -59.177539169538065]}}, {"type": "Feature", "properties": {"norad_id": 40267, "name": "HIMAWARI-8", "group": "weather", "lat": 0.006030601487761071, "lon": -12.17489426159815, "alt_km": 35783.58531653493, "timestamp": "2025-12-03T08:58:45.641219+00:00", "meta": {"OBJECT_NAME": "HIMAWARI-8", "OBJECT_ID": "2014-060A", "EPOCH": "2025-12-02T23:00:50.859072", "MEAN_MOTION": 1.00271223, "ECCENTRICITY": 0.0001367, "INCLINATION": 0.0359, "RA_OF_ASC_NODE": 138.8337, "ARG_OF_PERICENTER": 147.1555, "MEAN_ANOMALY": 271.9612, "EPHEMERIS_TYPE": 0, "CLASSIFICATION_TYPE": "U", "NORAD_CAT_ID": 40267, "ELEMENT_SET_NO": 999, "REV_AT_EPOCH": 4079, "BSTAR": 0, "MEAN_MOTION_DOT": -2.56e-06, "MEAN_MOTION_DDOT": 0}, "tle": {"line1": "1 40267U 14060A   25336.95892198 -.00000256  00000+0  00000+0 0  9992", "line2": "2 40267   0.0359 138.8337 0001367 147.1555 271.9612  1.00271223 40792"}}, "geometry": {"type": "Point", "coordinates": [-12.17489426159815, 0.006030601487761071]}}, {"type": "Feature", "properties": {"norad_id": 40367, "name": "FENGYUN 2G", "group": "weather", "lat": -4.041478103496229, "lon": -53.234316349291426, "alt_km": 35777.6554560382, "timestamp": "2025-12-03T08:58:45.641231+00:00", "meta": {"OBJECT_NAME": "FENGYUN 2G", "OBJECT_ID": "2014-090A", "EPOCH": "2025-12-02T19:23:41.667360", "MEAN_MOTION": 1.00267744, "ECCENTRICITY": 0.0003067, "INCLINATION": 5.141, "RA_OF_ASC_NODE": 75.2124, "ARG_OF_PERICENTER": 193.3464, "MEAN_ANOMALY": 193.9973, "EPHEMERIS_TYPE": 0, "CLASSIFICATION_TYPE": "U", "NORAD_CAT_ID": 40367, "ELEMENT_SET_NO": 999, "REV_AT_EPOCH": 4003, "BSTAR": 0, "MEAN_MOTION_DOT": -2.84e-06, "MEAN_MOTION_DDOT": 0}, "tle": {"line1": "1 40367U 14090A   25336.80812115 -.00000284  00000+0  00000+0 0  9992", "line2": "2 40367   5.1410  75.2124 0003067 193.3464 193.9973  1.00267744 40039"}}, "geometry": {"type": "Point", "coordinates": [-53.234316349291426, -4.041478103496229]}}, {"type": "Feature", "properties": {"norad_id": 40732, "name": "METEOSAT-11 (MSG-4)", "group": "weather", "lat": 1.546550159292086, "lon": -143.36527337283988, "alt_km": 35783.19475196513, "timestamp": "2025-12-03T08:58:45.641244+00:00", "meta": {"OBJECT_NAME": "METEOSAT-11 (MSG-4)", "OBJECT_ID": "2015-034A", "EPOCH": "2025-12-03T01:48:51.610176", "MEAN_MOTION": 1.00277693, "ECCENTRICITY": 2.53e-05, "INCLINATION": 2.7114, "RA_OF_ASC_NODE": 72.0263, "ARG_OF_PERICENTER": 164.2285, "MEAN_ANOMALY": 232.5958, "EPHEMERIS_TYPE": 0, "CLASSIFICATION_TYPE": "U", "NORAD_CAT_ID": 40732, "ELEMENT_SET_NO": 999, "REV_AT_EPOCH": 525, "BSTAR": 0, "MEAN_MOTION_DOT": 8.2e-07, "MEAN_MOTION_DDOT": 0}, "tle": {"line1": "1 40732U 15034A   25337.07559734  .00000082  00000+0  00000+0 0  9997", "line2": "2 40732   2.7114  72.0263 0000253 164.2285 232.5958  1.00277693  5252"}}, "geometry": {"type": "Point", "coordinates": [-143.36527337283988, 1.546550159292086]}}, {"type": "Feature", "properties": {"norad_id": 41105, "name": "ELEKTRO-L 2", "group": "weather", "lat": 5.369259330621253, "lon": -167.28225366181908, "alt_km": 35782.26429928989, "timestamp": "2025-12-03T08:58:45.641256+00:00", "meta": {"OBJECT_NAME": "ELEKTRO-L 2", "OBJECT_ID": "2015-074A", "EPOCH": "2025-12-03T01:42:07.255584", "MEAN_MOTION": 1.00269824, "ECCENTRICITY": 0.0003994, "INCLINATION": 6.1994, "RA_OF_ASC_NODE": 72.9411, "ARG_OF_PERICENTER": 197.267, "MEAN_ANOMALY": 172.9677, "EPHEMERIS_TYPE": 0, "CLASSIFICATION_TYPE": "U", "NORAD_CAT_ID": 41105, "ELEMENT_SET_NO": 999, "REV_AT_EPOCH": 3654, "BSTAR": 0, "MEAN_MOTION_DOT": -1.01e-06, "MEAN_MOTION_DDOT": 0}, "tle": {"line1": "1 41105U 15074A   25337.07091731 -.00000101  00000+0  00000+0 0  9997", "line2": "2 41105   6.1994  72.9411 0003994 197.2670 172.9677  1.00269824 36542"}}, "geometry": {"type": "Point", "coordinates": [-167.28225366181908, 5.369259330621253]}}, {"type": "Feature", "properties": {"norad_id": 41752, "name": "INSAT-3DR", "group": "weather", "lat": -0.03354943378901963, "lon": -78.80427539769742, "alt_km": 35726.96731328151, "timestamp": "2025-12-03T08:58:45.641268+00:00", "meta": {"OBJECT_NAME": "INSAT-3DR", "OBJECT_ID": "2016-054A", "EPOCH": "2025-12-03T03:50:06.371808", "MEAN_MOTION": 1.00269574, "ECCENTRICITY": 0.0014449, "INCLINATION": 0.067, "RA_OF_ASC_NODE": 89.2297, "ARG_OF_PERICENTER": 179.798, "MEAN_ANOMALY": 294.785, "EPHEMERIS_TYPE": 0, "CLASSIFICATION_TYPE": "U", "NORAD_CAT_ID": 41752, "ELEMENT_SET_NO": 999, "REV_AT_EPOCH": 3385, "BSTAR": 0, "MEAN_MOTION_DOT": -5.8e-07, "MEAN_MOTION_DDOT": 0}, "tle": {"line1": "1 41752U 16054A   25337.15979597 -.00000058  00000+0  00000+0 0  9999", "line2": "2 41752   0.0670  89.2297 0014449 179.7980 294.7850  1.00269574 33852"}}, "geometry": {"type": "Point", "coordinates": [-78.80427539769742, -0.03354943378901963]}}]}